start=new Date('2022-09-29T00:00:00.000Z').valueOf();
sats=[{"GP_ID":"213765658","PERIAPSIS":"546.026","RCS_SIZE":"LARGE","EPOCH":"2022-09-28T15:37:26.177088","NORAD_CAT_ID":"48661","RA_OF_ASC_NODE":"359.1637","FILE":"3586258","MEAN_ANOMALY":"302.1620","MEAN_MOTION_DOT":"0.00002080","ECCENTRICITY":"0.00016640","MEAN_MOTION_DDOT":"0.0000000000000","SITE":"AFETR","INCLINATION":"53.0554","ARG_OF_PERICENTER":"57.9530","OBJECT_ID":"2021-044Z","DECAY_DATE":null,"OBJECT_TYPE":"PAYLOAD","COUNTRY_CODE":"US","OBJECT_NAME":"STARLINK-2708","ELEMENT_SET_NO":"999","MEAN_ELEMENT_THEORY":"SGP4","EPHEMERIS_TYPE":"0","APOAPSIS":"548.331","LAUNCH_DATE":"2021-05-26","REF_FRAME":"TEME","BSTAR":"0.00015842000000","TIME_SYSTEM":"UTC","TLE_LINE1":"1 48661U 21044Z   22271.65099742  .00002080  00000-0  15842-3 0  9995","TLE_LINE2":"2 48661  53.0554 359.1637 0001664  57.9530 302.1620 15.06411398 74237","PERIOD":"95.591","SEMIMAJOR_AXIS":"6925.314","CENTER_NAME":"EARTH","CLASSIFICATION_TYPE":"U","MEAN_MOTION":"15.06411398","REV_AT_EPOCH":"7423"},{"OBJECT_TYPE":"PAYLOAD","SITE":"AFETR","INCLINATION":"53.0549","ARG_OF_PERICENTER":"63.9162","OBJECT_ID":"2021-044AA","DECAY_DATE":null,"RA_OF_ASC_NODE":"359.2044","FILE":"3586258","MEAN_ANOMALY":"296.1975","MEAN_MOTION_DOT":"0.00003843","ECCENTRICITY":"0.00014440","MEAN_MOTION_DDOT":"0.0000000000000","GP_ID":"213763935","PERIAPSIS":"546.249","RCS_SIZE":"LARGE","EPOCH":"2022-09-28T15:32:09.426912","NORAD_CAT_ID":"48662","CENTER_NAME":"EARTH","SEMIMAJOR_AXIS":"6925.384","MEAN_MOTION":"15.06388514","CLASSIFICATION_TYPE":"U","REV_AT_EPOCH":"7423","LAUNCH_DATE":"2021-05-26","REF_FRAME":"TEME","BSTAR":"0.00027683000000","TIME_SYSTEM":"UTC","TLE_LINE1":"1 48662U 21044AA  22271.64733133  .00003843  00000-0  27683-3 0  9998","PERIOD":"95.593","TLE_LINE2":"2 48662  53.0549 359.2044 0001444  63.9162 296.1975 15.06388514 74237","MEAN_ELEMENT_THEORY":"SGP4","EPHEMERIS_TYPE":"0","APOAPSIS":"548.249","COUNTRY_CODE":"US","OBJECT_NAME":"STARLINK-2726","ELEMENT_SET_NO":"999"},{"DECAY_DATE":null,"OBJECT_ID":"2021-044AB","INCLINATION":"53.0583","ARG_OF_PERICENTER":"88.7683","SITE":"AFETR","OBJECT_TYPE":"PAYLOAD","EPOCH":"2022-09-28T15:26:51.955296","NORAD_CAT_ID":"48663","GP_ID":"213764185","RCS_SIZE":"LARGE","PERIAPSIS":"546.000","MEAN_MOTION_DDOT":"0.0000000000000","ECCENTRICITY":"0.00022420","MEAN_ANOMALY":"271.3563","MEAN_MOTION_DOT":"0.00023234","RA_OF_ASC_NODE":"359.2131","FILE":"3586258","TLE_LINE1":"1 48663U 21044AB  22271.64365689  .00023234  00000-0  15782-2 0  9998","TLE_LINE2":"2 48663  53.0583 359.2131 0002242  88.7683 271.3563 15.06289402 74237","PERIOD":"95.599","BSTAR":"0.00157820000000","TIME_SYSTEM":"UTC","LAUNCH_DATE":"2021-05-26","REF_FRAME":"TEME","REV_AT_EPOCH":"7423","CENTER_NAME":"EARTH","SEMIMAJOR_AXIS":"6925.688","MEAN_MOTION":"15.06289402","CLASSIFICATION_TYPE":"U","OBJECT_NAME":"STARLINK-2667","ELEMENT_SET_NO":"999","COUNTRY_CODE":"US","APOAPSIS":"549.105","EPHEMERIS_TYPE":"0","MEAN_ELEMENT_THEORY":"SGP4"},{"GP_ID":"213709051","PERIAPSIS":"546.017","RCS_SIZE":"LARGE","EPOCH":"2022-09-28T12:10:28.086528","NORAD_CAT_ID":"48664","FILE":"3586039","RA_OF_ASC_NODE":"359.8277","MEAN_ANOMALY":"308.0452","MEAN_MOTION_DOT":"0.00003036","ECCENTRICITY":"0.00017570","MEAN_MOTION_DDOT":"0.0000000000000","SITE":"AFETR","INCLINATION":"53.0567","ARG_OF_PERICENTER":"52.0695","OBJECT_ID":"2021-044AC","DECAY_DATE":null,"OBJECT_TYPE":"PAYLOAD","COUNTRY_CODE":"US","OBJECT_NAME":"STARLINK-2709","ELEMENT_SET_NO":"999","MEAN_ELEMENT_THEORY":"SGP4","EPHEMERIS_TYPE":"0","APOAPSIS":"548.451","LAUNCH_DATE":"2021-05-26","REF_FRAME":"TEME","BSTAR":"0.00022265000000","TIME_SYSTEM":"UTC","TLE_LINE1":"1 48664U 21044AC  22271.50726952  .00003036  00000-0  22265-3 0  9991","PERIOD":"95.593","TLE_LINE2":"2 48664  53.0567 359.8277 0001757  52.0695 308.0452 15.06393340 74214","CENTER_NAME":"EARTH","SEMIMAJOR_AXIS":"6925.369","MEAN_MOTION":"15.06393340","CLASSIFICATION_TYPE":"U","REV_AT_EPOCH":"7421"},{"REF_FRAME":"TEME","LAUNCH_DATE":"2021-05-26","BSTAR":"0.00008782200000","TIME_SYSTEM":"UTC","TLE_LINE2":"2 48665  53.0565 359.1542 0001601  61.5769 298.5381 15.06388189 74237","PERIOD":"95.593","TLE_LINE1":"1 48665U 21044AD  22271.65376412  .00001026  00000-0  87822-4 0  9998","MEAN_MOTION":"15.06388189","CLASSIFICATION_TYPE":"U","SEMIMAJOR_AXIS":"6925.385","CENTER_NAME":"EARTH","REV_AT_EPOCH":"7423","COUNTRY_CODE":"US","ELEMENT_SET_NO":"999","OBJECT_NAME":"STARLINK-2653","MEAN_ELEMENT_THEORY":"SGP4","EPHEMERIS_TYPE":"0","APOAPSIS":"548.359","SITE":"AFETR","ARG_OF_PERICENTER":"61.5769","INCLINATION":"53.0565","OBJECT_ID":"2021-044AD","DECAY_DATE":null,"OBJECT_TYPE":"PAYLOAD","PERIAPSIS":"546.141","RCS_SIZE":"LARGE","GP_ID":"213765158","NORAD_CAT_ID":"48665","EPOCH":"2022-09-28T15:41:25.219968","FILE":"3586258","RA_OF_ASC_NODE":"359.1542","MEAN_MOTION_DOT":"0.00001026","MEAN_ANOMALY":"298.5381","MEAN_MOTION_DDOT":"0.0000000000000","ECCENTRICITY":"0.00016010"},{"OBJECT_TYPE":"PAYLOAD","DECAY_DATE":null,"OBJECT_ID":"2021-044AE","INCLINATION":"53.0563","ARG_OF_PERICENTER":"69.4175","SITE":"AFETR","ECCENTRICITY":"0.00016570","MEAN_MOTION_DDOT":"0.0000000000000","MEAN_ANOMALY":"290.6992","MEAN_MOTION_DOT":"0.00002433","FILE":"3586039","RA_OF_ASC_NODE":"0.4877","EPOCH":"2022-09-28T11:12:09.517248","NORAD_CAT_ID":"48666","GP_ID":"213708550","PERIAPSIS":"546.070","RCS_SIZE":"LARGE","REV_AT_EPOCH":"7419","CENTER_NAME":"EARTH","SEMIMAJOR_AXIS":"6925.353","CLASSIFICATION_TYPE":"U","MEAN_MOTION":"15.06398589","TLE_LINE1":"1 48666U 21044AE  22271.46677682  .00002433  00000-0  18220-3 0  9999","PERIOD":"95.592","TLE_LINE2":"2 48666  53.0563   0.4877 0001657  69.4175 290.6992 15.06398589 74193","TIME_SYSTEM":"UTC","BSTAR":"0.00018220000000","LAUNCH_DATE":"2021-05-26","REF_FRAME":"TEME","APOAPSIS":"548.365","EPHEMERIS_TYPE":"0","MEAN_ELEMENT_THEORY":"SGP4","OBJECT_NAME":"STARLINK-2666","ELEMENT_SET_NO":"999","COUNTRY_CODE":"US"},{"OBJECT_TYPE":"PAYLOAD","INCLINATION":"53.0559","ARG_OF_PERICENTER":"76.2643","SITE":"AFETR","DECAY_DATE":null,"OBJECT_ID":"2021-044AF","MEAN_ANOMALY":"283.8496","MEAN_MOTION_DOT":"0.00001594","FILE":"3586258","RA_OF_ASC_NODE":"359.2507","MEAN_MOTION_DDOT":"0.0000000000000","ECCENTRICITY":"0.00013540","EPOCH":"2022-09-28T15:16:14.552256","NORAD_CAT_ID":"48667","GP_ID":"213764686","PERIAPSIS":"546.296","RCS_SIZE":"LARGE","SEMIMAJOR_AXIS":"6925.369","CENTER_NAME":"EARTH","CLASSIFICATION_TYPE":"U","MEAN_MOTION":"15.06393349","REV_AT_EPOCH":"7423","BSTAR":"0.00012589000000","TIME_SYSTEM":"UTC","LAUNCH_DATE":"2021-05-26","REF_FRAME":"TEME","TLE_LINE1":"1 48667U 21044AF  22271.63627954  .00001594  00000-0  12589-3 0  9995","TLE_LINE2":"2 48667  53.0559 359.2507 0001354  76.2643 283.8496 15.06393349 74231","PERIOD":"95.593","MEAN_ELEMENT_THEORY":"SGP4","APOAPSIS":"548.172","EPHEMERIS_TYPE":"0","COUNTRY_CODE":"US","OBJECT_NAME":"STARLINK-2735","ELEMENT_SET_NO":"999"},{"COUNTRY_CODE":"US","OBJECT_NAME":"STARLINK-2738","ELEMENT_SET_NO":"999","MEAN_ELEMENT_THEORY":"SGP4","EPHEMERIS_TYPE":"0","APOAPSIS":"547.992","LAUNCH_DATE":"2021-05-26","REF_FRAME":"TEME","BSTAR":"0.00009044900000","TIME_SYSTEM":"UTC","TLE_LINE1":"1 48668U 21044AG  22271.49990174  .00001066  00000-0  90449-4 0  9993","TLE_LINE2":"2 48668  53.0569 359.8518 0001090  58.3345 301.7750 15.06392420 74218","PERIOD":"95.593","CENTER_NAME":"EARTH","SEMIMAJOR_AXIS":"6925.372","CLASSIFICATION_TYPE":"U","MEAN_MOTION":"15.06392420","REV_AT_EPOCH":"7421","GP_ID":"213709551","RCS_SIZE":"LARGE","PERIAPSIS":"546.482","EPOCH":"2022-09-28T11:59:51.510336","NORAD_CAT_ID":"48668","FILE":"3586039","RA_OF_ASC_NODE":"359.8518","MEAN_ANOMALY":"301.7750","MEAN_MOTION_DOT":"0.00001066","ECCENTRICITY":"0.00010900","MEAN_MOTION_DDOT":"0.0000000000000","SITE":"AFETR","INCLINATION":"53.0569","ARG_OF_PERICENTER":"58.3345","OBJECT_ID":"2021-044AG","DECAY_DATE":null,"OBJECT_TYPE":"PAYLOAD"},{"EPOCH":"2022-09-28T11:54:33.036480","NORAD_CAT_ID":"48669","GP_ID":"213742422","RCS_SIZE":"LARGE","PERIAPSIS":"546.279","ECCENTRICITY":"0.00013960","MEAN_MOTION_DDOT":"0.0000000000000","MEAN_ANOMALY":"277.3505","MEAN_MOTION_DOT":"0.00001138","FILE":"3586202","RA_OF_ASC_NODE":"359.8571","DECAY_DATE":null,"OBJECT_ID":"2021-044AH","INCLINATION":"53.0569","ARG_OF_PERICENTER":"82.7643","SITE":"AFETR","OBJECT_TYPE":"PAYLOAD","OBJECT_NAME":"STARLINK-2707","ELEMENT_SET_NO":"999","COUNTRY_CODE":"US","APOAPSIS":"548.213","EPHEMERIS_TYPE":"0","MEAN_ELEMENT_THEORY":"SGP4","TLE_LINE1":"1 48669U 21044AH  22271.49621570  .00001138  00000-0  95323-4 0  9991","PERIOD":"95.593","TLE_LINE2":"2 48669  53.0569 359.8571 0001396  82.7643 277.3505 15.06389487 75046","BSTAR":"0.00009532300000","TIME_SYSTEM":"UTC","LAUNCH_DATE":"2021-05-26","REF_FRAME":"TEME","REV_AT_EPOCH":"7504","SEMIMAJOR_AXIS":"6925.381","CENTER_NAME":"EARTH","MEAN_MOTION":"15.06389487","CLASSIFICATION_TYPE":"U"},{"GP_ID":"213763936","RCS_SIZE":"LARGE","PERIAPSIS":"546.093","EPOCH":"2022-09-28T15:00:18.148320","NORAD_CAT_ID":"48670","FILE":"3586258","RA_OF_ASC_NODE":"359.2785","MEAN_ANOMALY":"292.6181","MEAN_MOTION_DOT":"0.00006436","MEAN_MOTION_DDOT":"0.0000000000000","ECCENTRICITY":"0.00015470","SITE":"AFETR","INCLINATION":"53.0562","ARG_OF_PERICENTER":"67.4972","OBJECT_ID":"2021-044AJ","DECAY_DATE":null,"OBJECT_TYPE":"PAYLOAD","COUNTRY_CODE":"US","OBJECT_NAME":"STARLINK-2763","ELEMENT_SET_NO":"999","MEAN_ELEMENT_THEORY":"SGP4","EPHEMERIS_TYPE":"0","APOAPSIS":"548.236","LAUNCH_DATE":"2021-05-26","REF_FRAME":"TEME","TIME_SYSTEM":"UTC","BSTAR":"0.00045035000000","TLE_LINE1":"1 48670U 21044AJ  22271.62521005  .00006436  00000-0  45035-3 0  9990","TLE_LINE2":"2 48670  53.0562 359.2785 0001547  67.4972 292.6181 15.06415906 74220","PERIOD":"95.591","SEMIMAJOR_AXIS":"6925.300","CENTER_NAME":"EARTH","CLASSIFICATION_TYPE":"U","MEAN_MOTION":"15.06415906","REV_AT_EPOCH":"7422"}];
